SL-3 R/B                
1 13403U 82079B   25355.80942943  .00005259  00000+0  21590-3 0  9996
2 13403  81.1480 284.9693 0027021  69.9640 290.4498 15.23685819365831
SL-14 R/B               
1 13553U 82092B   25355.70091464  .00000386  00000+0  40681-4 0  9998
2 13553  82.5674 214.3312 0019846 195.9641 228.8451 14.86563490317344
SL-3 R/B                
1 13819U 83010B   25355.71789500  .00012345  00000+0  27170-3 0  9995
2 13819  81.1050  97.6589 0016688 319.3001  40.6994 15.43681423345909
SL-3 R/B                
1 14208U 83075B   25355.77616348  .00008690  00000+0  24571-3 0  9994
2 14208  97.6102 352.5637 0023692 143.9797 216.3049 15.36302018318180
COSMOS 1536             
1 14699U 84013A   25355.81006076  .00005641  00000+0  24069-3 0  9992
2 14699  82.5439 185.1681 0014200 191.8461 168.2444 15.22614911260761
SL-14 R/B               
1 14820U 84027B   25355.84871314  .00000427  00000+0  46154-4 0  9998
2 14820  82.5419 318.0135 0016694 227.9542 132.0255 14.85883280236077
SL-8 R/B                
1 15483U 85006B   25355.59789837  .00000219  00000+0  81355-4 0  9993
2 15483  74.0462  44.8375 0019075 335.1698 135.5026 14.37726036142800
SL-12 R/B(2)            
1 15772U 85042D   25355.82125641  .00000085  00000+0  59597-4 0  9991
2 15772  71.1074 252.2347 0037382 248.1365 175.7836 14.21954549103321
SL-14 R/B               
1 15945U 85069B   25355.72256354  .00000445  00000+0  47573-4 0  9998
2 15945  82.5273  98.2585 0020342  90.8975 269.4573 14.86334034161256
SL-16 R/B               
1 16182U 85097B   25355.17270385 -.00000041  00000+0  33765-5 0  9994
2 16182  71.0038 305.8491 0007249 357.1699  14.0367 14.16587826 76115
SL-14 R/B               
1 16496U 86006B   25355.44976644  .00000480  00000+0  48291-4 0  9999
2 16496  82.5267 333.3551 0076926 170.8510 189.4131 14.86681945137586
COSMOS 1743             
1 16719U 86034A   25355.42088658  .00026202  00000+0  42484-3 0  9992
2 16719  82.5344 155.5716 0004927 215.9623 144.1299 15.52605056168080
