CCSDS_OMM_VERS = 2.0
CREATION_DATE  = 
ORIGINATOR     = 

OBJECT_NAME    = SL-3 R/B
OBJECT_ID      = 1982-079B
CENTER_NAME    = EARTH
REF_FRAME      = TEME
TIME_SYSTEM    = UTC
MEAN_ELEMENT_THEORY = SGP/SGP4

EPOCH          = 2025-12-21T19:25:34.702752
MEAN_MOTION    = 15.23685819
ECCENTRICITY   = .0027021
INCLINATION    = 81.1480
RA_OF_ASC_NODE = 284.9693
ARG_OF_PERICENTER = 69.9640
MEAN_ANOMALY   = 290.4498

EPHEMERIS_TYPE = 0
CLASSIFICATION_TYPE = U
NORAD_CAT_ID   = 13403
ELEMENT_SET_NO = 999
REV_AT_EPOCH   = 36583
BSTAR          = .2159E-3
MEAN_MOTION_DOT = .5259E-4
MEAN_MOTION_DDOT = 0

CCSDS_OMM_VERS = 2.0
CREATION_DATE  = 
ORIGINATOR     = 

OBJECT_NAME    = SL-14 R/B
OBJECT_ID      = 1982-092B
CENTER_NAME    = EARTH
REF_FRAME      = TEME
TIME_SYSTEM    = UTC
MEAN_ELEMENT_THEORY = SGP/SGP4

EPOCH          = 2025-12-21T16:49:19.024896
MEAN_MOTION    = 14.86563490
ECCENTRICITY   = .0019846
INCLINATION    = 82.5674
RA_OF_ASC_NODE = 214.3312
ARG_OF_PERICENTER = 195.9641
MEAN_ANOMALY   = 228.8451

EPHEMERIS_TYPE = 0
CLASSIFICATION_TYPE = U
NORAD_CAT_ID   = 13553
ELEMENT_SET_NO = 999
REV_AT_EPOCH   = 31734
BSTAR          = .40681E-4
MEAN_MOTION_DOT = .386E-5
MEAN_MOTION_DDOT = 0

CCSDS_OMM_VERS = 2.0
CREATION_DATE  = 
ORIGINATOR     = 

OBJECT_NAME    = SL-3 R/B
OBJECT_ID      = 1983-010B
CENTER_NAME    = EARTH
REF_FRAME      = TEME
TIME_SYSTEM    = UTC
MEAN_ELEMENT_THEORY = SGP/SGP4

EPOCH          = 2025-12-21T17:13:46.128000
MEAN_MOTION    = 15.43681423
ECCENTRICITY   = .0016688
INCLINATION    = 81.1050
RA_OF_ASC_NODE = 97.6589
ARG_OF_PERICENTER = 319.3001
MEAN_ANOMALY   = 40.6994

EPHEMERIS_TYPE = 0
CLASSIFICATION_TYPE = U
NORAD_CAT_ID   = 13819
ELEMENT_SET_NO = 999
REV_AT_EPOCH   = 34590
BSTAR          = .2717E-3
MEAN_MOTION_DOT = .12345E-3
MEAN_MOTION_DDOT = 0

CCSDS_OMM_VERS = 2.0
CREATION_DATE  = 
ORIGINATOR     = 

OBJECT_NAME    = SL-3 R/B
OBJECT_ID      = 1983-075B
CENTER_NAME    = EARTH
REF_FRAME      = TEME
TIME_SYSTEM    = UTC
MEAN_ELEMENT_THEORY = SGP/SGP4

EPOCH          = 2025-12-21T18:37:40.524672
MEAN_MOTION    = 15.36302018
ECCENTRICITY   = .0023692
INCLINATION    = 97.6102
RA_OF_ASC_NODE = 352.5637
ARG_OF_PERICENTER = 143.9797
MEAN_ANOMALY   = 216.3049

EPHEMERIS_TYPE = 0
CLASSIFICATION_TYPE = U
NORAD_CAT_ID   = 14208
ELEMENT_SET_NO = 999
REV_AT_EPOCH   = 31818
BSTAR          = .24571E-3
MEAN_MOTION_DOT = .869E-4
MEAN_MOTION_DDOT = 0

CCSDS_OMM_VERS = 2.0
CREATION_DATE  = 
ORIGINATOR     = 

OBJECT_NAME    = COSMOS 1536
OBJECT_ID      = 1984-013A
CENTER_NAME    = EARTH
REF_FRAME      = TEME
TIME_SYSTEM    = UTC
MEAN_ELEMENT_THEORY = SGP/SGP4

EPOCH          = 2025-12-21T19:26:29.249664
MEAN_MOTION    = 15.22614911
ECCENTRICITY   = .00142
INCLINATION    = 82.5439
RA_OF_ASC_NODE = 185.1681
ARG_OF_PERICENTER = 191.8461
MEAN_ANOMALY   = 168.2444

EPHEMERIS_TYPE = 0
CLASSIFICATION_TYPE = U
NORAD_CAT_ID   = 14699
ELEMENT_SET_NO = 999
REV_AT_EPOCH   = 26076
BSTAR          = .24069E-3
MEAN_MOTION_DOT = .5641E-4
MEAN_MOTION_DDOT = 0

CCSDS_OMM_VERS = 2.0
CREATION_DATE  = 
ORIGINATOR     = 

OBJECT_NAME    = SL-14 R/B
OBJECT_ID      = 1984-027B
CENTER_NAME    = EARTH
REF_FRAME      = TEME
TIME_SYSTEM    = UTC
MEAN_ELEMENT_THEORY = SGP/SGP4

EPOCH          = 2025-12-21T20:22:08.815296
MEAN_MOTION    = 14.85883280
ECCENTRICITY   = .0016694
INCLINATION    = 82.5419
RA_OF_ASC_NODE = 318.0135
ARG_OF_PERICENTER = 227.9542
MEAN_ANOMALY   = 132.0255

EPHEMERIS_TYPE = 0
CLASSIFICATION_TYPE = U
NORAD_CAT_ID   = 14820
ELEMENT_SET_NO = 999
REV_AT_EPOCH   = 23607
BSTAR          = .46154E-4
MEAN_MOTION_DOT = .427E-5
MEAN_MOTION_DDOT = 0

CCSDS_OMM_VERS = 2.0
CREATION_DATE  = 
ORIGINATOR     = 

OBJECT_NAME    = SL-8 R/B
OBJECT_ID      = 1985-006B
CENTER_NAME    = EARTH
REF_FRAME      = TEME
TIME_SYSTEM    = UTC
MEAN_ELEMENT_THEORY = SGP/SGP4

EPOCH          = 2025-12-21T14:20:58.419168
MEAN_MOTION    = 14.37726036
ECCENTRICITY   = .0019075
INCLINATION    = 74.0462
RA_OF_ASC_NODE = 44.8375
ARG_OF_PERICENTER = 335.1698
MEAN_ANOMALY   = 135.5026

EPHEMERIS_TYPE = 0
CLASSIFICATION_TYPE = U
NORAD_CAT_ID   = 15483
ELEMENT_SET_NO = 999
REV_AT_EPOCH   = 14280
BSTAR          = .81355E-4
MEAN_MOTION_DOT = .219E-5
MEAN_MOTION_DDOT = 0

CCSDS_OMM_VERS = 2.0
CREATION_DATE  = 
ORIGINATOR     = 

OBJECT_NAME    = SL-12 R/B(2)
OBJECT_ID      = 1985-042D
CENTER_NAME    = EARTH
REF_FRAME      = TEME
TIME_SYSTEM    = UTC
MEAN_ELEMENT_THEORY = SGP/SGP4

EPOCH          = 2025-12-21T19:42:36.553824
MEAN_MOTION    = 14.21954549
ECCENTRICITY   = .0037382
INCLINATION    = 71.1074
RA_OF_ASC_NODE = 252.2347
ARG_OF_PERICENTER = 248.1365
MEAN_ANOMALY   = 175.7836

EPHEMERIS_TYPE = 0
CLASSIFICATION_TYPE = U
NORAD_CAT_ID   = 15772
ELEMENT_SET_NO = 999
REV_AT_EPOCH   = 10332
BSTAR          = .59597E-4
MEAN_MOTION_DOT = .85E-6
MEAN_MOTION_DDOT = 0

CCSDS_OMM_VERS = 2.0
CREATION_DATE  = 
ORIGINATOR     = 

OBJECT_NAME    = SL-14 R/B
OBJECT_ID      = 1985-069B
CENTER_NAME    = EARTH
REF_FRAME      = TEME
TIME_SYSTEM    = UTC
MEAN_ELEMENT_THEORY = SGP/SGP4

EPOCH          = 2025-12-21T17:20:29.489856
MEAN_MOTION    = 14.86334034
ECCENTRICITY   = .0020342
INCLINATION    = 82.5273
RA_OF_ASC_NODE = 98.2585
ARG_OF_PERICENTER = 90.8975
MEAN_ANOMALY   = 269.4573

EPHEMERIS_TYPE = 0
CLASSIFICATION_TYPE = U
NORAD_CAT_ID   = 15945
ELEMENT_SET_NO = 999
REV_AT_EPOCH   = 16125
BSTAR          = .47573E-4
MEAN_MOTION_DOT = .445E-5
MEAN_MOTION_DDOT = 0

CCSDS_OMM_VERS = 2.0
CREATION_DATE  = 
ORIGINATOR     = 

OBJECT_NAME    = SL-16 R/B
OBJECT_ID      = 1985-097B
CENTER_NAME    = EARTH
REF_FRAME      = TEME
TIME_SYSTEM    = UTC
MEAN_ELEMENT_THEORY = SGP/SGP4

EPOCH          = 2025-12-21T04:08:41.612640
MEAN_MOTION    = 14.16587826
ECCENTRICITY   = .00072496
INCLINATION    = 71.0038
RA_OF_ASC_NODE = 305.8491
ARG_OF_PERICENTER = 357.1699
MEAN_ANOMALY   = 14.0367

EPHEMERIS_TYPE = 0
CLASSIFICATION_TYPE = U
NORAD_CAT_ID   = 16182
ELEMENT_SET_NO = 999
REV_AT_EPOCH   = 7611
BSTAR          = .3376508E-5
MEAN_MOTION_DOT = -.41E-6
MEAN_MOTION_DDOT = 0

CCSDS_OMM_VERS = 2.0
CREATION_DATE  = 
ORIGINATOR     = 

OBJECT_NAME    = SL-14 R/B
OBJECT_ID      = 1986-006B
CENTER_NAME    = EARTH
REF_FRAME      = TEME
TIME_SYSTEM    = UTC
MEAN_ELEMENT_THEORY = SGP/SGP4

EPOCH          = 2025-12-21T10:47:39.820416
MEAN_MOTION    = 14.86681945
ECCENTRICITY   = .00769267
INCLINATION    = 82.5267
RA_OF_ASC_NODE = 333.3551
ARG_OF_PERICENTER = 170.8510
MEAN_ANOMALY   = 189.4131

EPHEMERIS_TYPE = 0
CLASSIFICATION_TYPE = U
NORAD_CAT_ID   = 16496
ELEMENT_SET_NO = 999
REV_AT_EPOCH   = 13758
BSTAR          = .48290542E-4
MEAN_MOTION_DOT = .48E-5
MEAN_MOTION_DDOT = 0

CCSDS_OMM_VERS = 2.0
CREATION_DATE  = 
ORIGINATOR     = 

OBJECT_NAME    = COSMOS 1743
OBJECT_ID      = 1986-034A
CENTER_NAME    = EARTH
REF_FRAME      = TEME
TIME_SYSTEM    = UTC
MEAN_ELEMENT_THEORY = SGP/SGP4

EPOCH          = 2025-12-21T10:06:04.600512
MEAN_MOTION    = 15.52605056
ECCENTRICITY   = .0004927
INCLINATION    = 82.5344
RA_OF_ASC_NODE = 155.5716
ARG_OF_PERICENTER = 215.9623
MEAN_ANOMALY   = 144.1299

EPHEMERIS_TYPE = 0
CLASSIFICATION_TYPE = U
NORAD_CAT_ID   = 16719
ELEMENT_SET_NO = 999
REV_AT_EPOCH   = 16808
BSTAR          = .42483519E-3
MEAN_MOTION_DOT = .26202E-3
MEAN_MOTION_DDOT = 0

